{
    "links": {
        "self": "http://www.neowsapp.com/rest/v1/neo/3843086?api_key=iIulBulltgU6a56xZRHN4H3l9WmuAYTsLGpBGhQ2"
    },
    "id": "3843086",
    "neo_reference_id": "3843086",
    "name": "(2019 ML3)",
    "designation": "2019 ML3",
    "nasa_jpl_url": "http://ssd.jpl.nasa.gov/sbdb.cgi?sstr=3843086",
    "absolute_magnitude_h": 24.1,
    "estimated_diameter": {
        "kilometers": {
            "estimated_diameter_min": 0.040230458,
            "estimated_diameter_max": 0.0899580388
        },
        "meters": {
            "estimated_diameter_min": 40.2304579834,
            "estimated_diameter_max": 89.9580388169
        },
        "miles": {
            "estimated_diameter_min": 0.0249980399,
            "estimated_diameter_max": 0.0558973165
        },
        "feet": {
            "estimated_diameter_min": 131.9896957704,
            "estimated_diameter_max": 295.1379320721
        }
    },
    "is_potentially_hazardous_asteroid": false,
    "close_approach_data": [
        {
            "close_approach_date": "2019-07-10",
            "close_approach_date_full": "2019-Jul-10 21:41",
            "epoch_date_close_approach": 1562794860000,
            "relative_velocity": {
                "kilometers_per_second": "11.3239305077",
                "kilometers_per_hour": "40766.1498277823",
                "miles_per_hour": "25330.5001527128"
            },
            "miss_distance": {
                "astronomical": "0.0658732621",
                "lunar": "25.6246989569",
                "kilometers": "9854499.700111727",
                "miles": "6123302.1723547526"
            },
            "orbiting_body": "Earth"
        }
    ],
    "orbital_data": {
        "orbit_id": "6",
        "orbit_determination_date": "2019-07-23 02:50:14",
        "first_observation_date": "2019-06-29",
        "last_observation_date": "2019-07-08",
        "data_arc_in_days": 9,
        "observations_used": 30,
        "orbit_uncertainty": "8",
        "minimum_orbit_intersection": ".0639718",
        "jupiter_tisserand_invariant": "3.145",
        "epoch_osculation": "2458665.5",
        "eccentricity": ".5759993147547305",
        "semi_major_axis": "2.543860679586778",
        "inclination": "15.91462231838577",
        "ascending_node_longitude": "108.1224576353775",
        "orbital_period": "1481.966582287378",
        "perihelion_distance": "1.078598671313291",
        "perihelion_argument": "173.1973550686239",
        "aphelion_distance": "4.009122687860266",
        "perihelion_time": "2458670.030785744940",
        "mean_anomaly": "358.8993794545212",
        "mean_motion": ".2429204573859884",
        "equinox": "J2000",
        "orbit_class": {
            "orbit_class_type": "AMO",
            "orbit_class_description": "Near-Earth asteroid orbits similar to that of 1221 Amor",
            "orbit_class_range": "1.017 AU < q (perihelion) < 1.3 AU"
        }
    },
    "is_sentry_object": false
}